{
  "type": "FeatureCollection",
  "features": [
    {
      "type": "Feature",
      "properties": {},
      "geometry": {
        "coordinates": [
          [
            [
              177.912,
              -18.288
            ],
            [
              -179.794,
              -18.288
            ],
            [
              -179.794,
              -16.152
            ],
            [
              177.912,
              -16.152
            ],
            [
              177.912,
              -18.288
            ]
          ]
        ],
        "type": "Polygon"
      }
    }
  ]
}