{
  "type": "FeatureCollection",
  "features": [
    {
      "type": "Feature",
      "id": "0",
      "properties": {},
      "geometry": {
        "type": "Polygon",
        "coordinates": [
          [
            [
              13.38895,
              52.5076,
              1,
              1000
            ],
            [
              13.38985,
              52.50805,
              4,
              1001
            ],
            [
              13.38935,
              52.5085,
              3,
              1002
            ],
            [
              13.38845,
              52.50805,
              2,
              1003
            ],
            [
              13.38895,
              52.5076,
              1,
              1000
            ]
          ]
        ]
      }
    }
  ]
}
